satname,norad_id,inclination_deg,eccentricity,mean_motion_rev_per_day,perigee_km,apogee_km,l1,l2
STARLINK-1560,46036,53.114,0.0001489,15.20235172,504.105734626336,506.15557173345223,1 46036U 20055K   26068.91668981  .01455457  00000+0  60628-1 0  9994,2 46036  53.1140 125.2600 0001489  80.2685  28.0597 15.20235172  5736
STARLINK-1567,46038,53.0878,0.0001263,15.18082836,510.7649975507211,512.5053540023218,1 46038U 20055M   26068.91668981  .01588453  00000+0  69808-1 0  9998,2 46038  53.0878 125.3414 0001263  56.4436 305.1894 15.18082836  5786
STARLINK-1569,46039,53.1037,8.89e-05,15.18386196,510.1050494259662,511.32988775048125,1 46039U 20055N   26068.91668981  .00080867  00000+0  38576-2 0  9993,2 46039  53.1037 125.2480 0000889  78.9281 294.2210 15.18386196  5783
STARLINK-1582,46043,53.1028,0.0001081,15.17929796,511.35342513160776,512.8430939947257,1 46043U 20055S   26068.91668981  .01385884  00000+0  61954-1 0  9991,2 46043  53.1028 125.3454 0001081 107.2143 173.3510 15.17929796  5731
STARLINK-1591,46045,53.1042,0.0001476,15.18431293,509.56429504572134,511.59784461993604,1 46045U 20055U   26068.91668981  .00077768  00000+0  37071-2 0  9995,2 46045  53.1042 125.1901 0001476 111.4593 114.5441 15.18431293  5773
STARLINK-1524,46047,53.1566,0.0001469,15.29379865,476.6578216321732,478.67205624183225,1 46047U 20055W   26068.39257527  .00008160  00000+0  29458-3 0  9990,2 46047  53.1566 115.2043 0001469 112.6811 247.4344 15.29379865309022
STARLINK-1527,46048,53.1608,0.0001302,15.30184962,474.3676582588623,476.15228282999306,1 46048U 20055X   26068.53013343  .00011339  00000+0  39455-3 0  9993,2 46048  53.1608 114.6784 0001302 108.7364 251.3778 15.30184962309029
STARLINK-1540,46051,53.1586,0.0001277,15.30181677,474.39459909480865,476.14495918620014,1 46051U 20055AA  26068.66670139  .00011200  00000+0  38992-3 0  9995,2 46051  53.1586 113.9518 0001277  96.4813 168.6408 15.30181677  5649
STARLINK-1541,46052,53.1593,0.0001223,15.30198741,474.38066315113156,476.05699398679917,1 46052U 20055AB  26068.54276674  .00003474  00000+0  12937-3 0  9994,2 46052  53.1593 114.5667 0001223  89.1239 270.9902 15.30198741309027
STARLINK-1543,46053,53.1586,0.0001413,15.30163255,474.35639141122647,476.29317971182536,1 46053U 20055AC  26068.66670139  .00014443  00000+0  49937-3 0  9990,2 46053  53.1586 114.0187 0001413  89.7263 198.6794 15.30163255  5745
STARLINK-1548,46054,53.1583,0.0001744,15.3017455,474.09582173155286,476.48629743873516,1 46054U 20055AD  26068.66670139  .00012023  00000+0  41773-3 0  9993,2 46054  53.1583 114.0202 0001744  82.7733 164.9326 15.30174550  5694
STARLINK-1554,46055,53.1583,0.0001418,15.30224882,474.16898247021527,476.1125720478449,1 46055U 20055AE  26068.55436788  .00011659  00000+0  40484-3 0  9994,2 46055  53.1583 114.6651 0001418  88.5920 271.5243 15.30224882309053
STARLINK-1564,46058,53.1603,0.0001061,15.3019367,474.5068270636011,475.9611123833756,1 46058U 20055AH  26068.35638415  .00000977  00000+0  45126-4 0  9996,2 46058  53.1603 115.9195 0001061  70.7745 289.3371 15.30193670309013
STARLINK-1570,46059,53.1603,0.000154,15.30212858,474.121267711409,476.23208832423916,1 46059U 20055AJ  26068.51642000  .00003570  00000+0  13254-3 0  9998,2 46059  53.1603 114.7149 0001540 115.7829 244.3331 15.30212858309001
STARLINK-1572,46060,53.1561,0.0001206,15.29351391,476.92321451152384,478.5768544642433,1 46060U 20055AK  26068.39969157 -.00004303  00000+0 -13689-3 0  9990,2 46060  53.1561 115.4328 0001206  90.8400 269.2739 15.29351391308999
STARLINK-1573,46061,53.1594,0.0001601,15.30196401,474.1285920189157,476.3230387924077,1 46061U 20055AL  26068.50063041  .00000415  00000+0  26132-4 0  9997,2 46061  53.1594 114.7412 0001601  89.6069 270.5115 15.30196401309049
STARLINK-1577,46063,53.1613,0.0001392,15.30219657,474.2023993506291,476.1103562270064,1 46063U 20055AN  26068.52694568  .00010562  00000+0  36800-3 0  9991,2 46063  53.1613 114.5871 0001392  79.7271 280.3887 15.30219657309046
STARLINK-1583,46064,53.1591,0.0001092,15.30036564,474.9546639546097,476.4515426331691,1 46064U 20055AP  26068.49754280  .00070613  00000+0  23857-2 0  9996,2 46064  53.1591 114.7608 0001092  94.0990 266.0136 15.30036564309038
STARLINK-1525,46066,53.0547,0.0001808,15.13669001,523.7742285852255,526.270410995262,1 46066U 20055AR  26068.91668981  .00040394  00000+0  22238-2 0  9992,2 46066  53.0547  95.3524 0001808  71.3994 120.4428 15.13669001  5734
STARLINK-1536,46070,53.0552,0.0001486,15.06405825,546.1646010669647,548.2228093525528,1 46070U 20055AV  26068.35201266  .00000946  00000+0  82402-4 0  9994,2 46070  53.0552  98.1347 0001486  88.2488 271.8671 15.06405825309266
STARLINK-1542,46073,53.0559,0.0001459,15.06405667,546.1837836333825,548.2045952744647,1 46073U 20055AY  26068.34464086  .00000701  00000+0  65931-4 0  9994,2 46073  53.0559  98.1686 0001459  82.5697 277.5458 15.06405667309250
STARLINK-1549,46074,53.0536,0.0001365,15.0641022,546.2349294846981,548.1255410899312,1 46074U 20055AZ  26068.79432574 -.00000113  00000+0  11304-4 0  9994,2 46074  53.0536  96.1488 0001365  91.9931 268.1215 15.06410220309310
STARLINK-1551,46075,53.0548,0.0001346,15.06398019,546.2854766914943,548.149782157735,1 46075U 20055BA  26068.48839804 -.00000715  00000+0 -29092-4 0  9990,2 46075  53.0548  97.5217 0001346  93.4090 266.7054 15.06398019309272
STARLINK-1552,46076,53.0548,0.0001182,15.06392702,546.415346504099,548.0525041908504,1 46076U 20055BB  26068.31515402 -.00000222  00000+0  39571-5 0  9994,2 46076  53.0548  98.3005 0001182  77.5639 282.5483 15.06392702309238
STARLINK-1559,46077,53.0254,0.0004229,15.29461733,474.5210730706676,480.3195034250675,1 46077U 20055BC  26068.23360559  .00042685  00000+0  14779-2 0  9995,2 46077  53.0254  76.0659 0004229  33.9710 326.1559 15.29461733309518
STARLINK-1566,46079,53.0536,0.0001467,15.06403842,546.1838358806181,548.215729692688,1 46079U 20055BE  26068.79803133  .00005672  00000+0  39931-3 0  9991,2 46079  53.0536  96.1320 0001467  87.7900 272.3257 15.06403842309328
STARLINK-1568,46080,53.0625,0.0005912,15.46537156,422.8420676169799,430.88830220041564,1 46080U 20055BF  26068.29990828  .00053888  00000+0  10677-2 0  9993,2 46080  53.0625  34.8379 0005912 113.1851 246.9779 15.46537156310137
STARLINK-1578,46082,53.0557,0.0001395,15.06408841,546.2183793352342,548.1505440230412,1 46082U 20055BH  26068.48101883  .00001259  00000+0  10340-3 0  9994,2 46082  53.0557  97.5557 0001395  88.2015 271.9133 15.06408841309271
